RAVAN                   
1 41849U 16067B   26124.66837097  .00044843  00000+0  77496-3 0  9995
2 41849  97.9940   9.3502 0006907 141.5482 218.6261 15.50827448520942
CELTEE 1                
1 41850U 16067C   26125.07251628  .00004891  00000+0  23567-3 0  9992
2 41850  98.0725 348.7012 0002136  68.3879 291.7582 15.19260810519337
OPTICUBE 04             
1 41851U 16067D   26125.52377419  .00002733  00000+0  17473-3 0  9992
2 41851  98.0741 335.5767 0014256 261.3003  98.6610 15.09481842518735
AEROCUBE 8D             
1 41852U 16067E   26125.08600755  .00007298  00000+0  30639-3 0  9996
2 41852  98.0738 351.9868 0001962 294.4360  65.6671 15.23802486519503
AEROCUBE 8C             
1 41853U 16067F   26125.05216422  .00007486  00000+0  31193-3 0  9993
2 41853  98.0606 349.2347 0004800 194.2641 165.8460 15.24037460519493
CORVUS BC2              
1 42846U 17042X   26125.40977205  .00004646  00000+0  32213-3 0  9991
2 42846  97.4021 288.4415 0011908 256.9902 102.9997 15.06025417480621
CORVUS BC1              
1 42847U 17042Y   26125.40924179  .00005044  00000+0  34786-3 0  9994
2 42847  97.4059 289.2269 0011001 230.8426 129.1825 15.06195029480656
MAKERSAT 0              
1 43016U 17073D   26125.11375137  .00023954  00000+0  67279-3 0  9992
2 43016  97.4681   7.3454 0112955  66.6825 294.6255 15.30269778459874
SIRION PATHFINDER-2     
1 43759U 18099B   26125.36371336  .00006648  00000+0  36755-3 0  9995
2 43759  97.4281 175.4441 0010452  90.0022 270.2407 15.14161494406145
CORVUS BC4              
1 43767U 18099K   26125.37892144  .00005315  00000+0  31155-3 0  9999
2 43767  97.4102 169.6158 0009531 140.7338 219.4586 15.12153501405932
M2 PATHFINDER           
1 45727U 20037E   26125.08429607  .00003347  00000+0  24347-3 0  9998
2 45727  97.8152 315.8336 0010613 301.6430  58.3760 15.04485028319016
NETSAT-4                
1 46504U 20068U   26125.45636954  .00023342  00000+0  53973-3 0  9996
2 46504  97.8622 130.3130 0007618 109.5319 250.6750 15.42474518309183
NETSAT-3                
1 46505U 20068V   26125.42901324  .00019957  00000+0  48148-3 0  9995
2 46505  97.8670 128.5566 0007303 122.2735 237.9219 15.41230391309090
