
    {
        "ARG_OF_PERICENTER": 141.5482,
        "BSTAR": 0.00077495619,
        "CLASSIFICATION_TYPE": "U",
        "ECCENTRICITY": 0.00069078,
        "ELEMENT_SET_NO": 999,
        "EPHEMERIS_TYPE": 0,
        "EPOCH": "2026-05-04T16:02:27.251808",
        "INCLINATION": 97.994,
        "MEAN_ANOMALY": 218.6261,
        "MEAN_MOTION": 15.50827448,
        "MEAN_MOTION_DDOT": 0,
        "MEAN_MOTION_DOT": 0.00044843,
        "NORAD_CAT_ID": 41849,
        "OBJECT_ID": "2016-067B",
        "OBJECT_NAME": "RAVAN",
        "RA_OF_ASC_NODE": 9.3502,
        "REV_AT_EPOCH": 52094
    },
    {
        "ARG_OF_PERICENTER": 68.3879,
        "BSTAR": 0.00023566541,
        "CLASSIFICATION_TYPE": "U",
        "ECCENTRICITY": 0.00021364,
        "ELEMENT_SET_NO": 999,
        "EPHEMERIS_TYPE": 0,
        "EPOCH": "2026-05-05T01:44:25.406592",
        "INCLINATION": 98.0725,
        "MEAN_ANOMALY": 291.7582,
        "MEAN_MOTION": 15.1926081,
        "MEAN_MOTION_DDOT": 0,
        "MEAN_MOTION_DOT": 4.891e-05,
        "NORAD_CAT_ID": 41850,
        "OBJECT_ID": "2016-067C",
        "OBJECT_NAME": "CELTEE 1",
        "RA_OF_ASC_NODE": 348.7012,
        "REV_AT_EPOCH": 51933
    },
    {
        "ARG_OF_PERICENTER": 261.3003,
        "BSTAR": 0.00017473,
        "CLASSIFICATION_TYPE": "U",
        "ECCENTRICITY": 0.0014256,
        "ELEMENT_SET_NO": 999,
        "EPHEMERIS_TYPE": 0,
        "EPOCH": "2026-05-05T12:34:14.090016",
        "INCLINATION": 98.0741,
        "MEAN_ANOMALY": 98.661,
        "MEAN_MOTION": 15.09481842,
        "MEAN_MOTION_DDOT": 0,
        "MEAN_MOTION_DOT": 2.733e-05,
        "NORAD_CAT_ID": 41851,
        "OBJECT_ID": "2016-067D",
        "OBJECT_NAME": "OPTICUBE 04",
        "RA_OF_ASC_NODE": 335.5767,
        "REV_AT_EPOCH": 51873
    },
    {
        "ARG_OF_PERICENTER": 294.436,
        "BSTAR": 0.0003063868,
        "CLASSIFICATION_TYPE": "U",
        "ECCENTRICITY": 0.00019622,
        "ELEMENT_SET_NO": 999,
        "EPHEMERIS_TYPE": 0,
        "EPOCH": "2026-05-05T02:03:51.052320",
        "INCLINATION": 98.0738,
        "MEAN_ANOMALY": 65.6671,
        "MEAN_MOTION": 15.23802486,
        "MEAN_MOTION_DDOT": 0,
        "MEAN_MOTION_DOT": 7.298e-05,
        "NORAD_CAT_ID": 41852,
        "OBJECT_ID": "2016-067E",
        "OBJECT_NAME": "AEROCUBE 8D",
        "RA_OF_ASC_NODE": 351.9868,
        "REV_AT_EPOCH": 51950
    },
    {
        "ARG_OF_PERICENTER": 194.2641,
        "BSTAR": 0.00031193065,
        "CLASSIFICATION_TYPE": "U",
        "ECCENTRICITY": 0.00048008,
        "ELEMENT_SET_NO": 999,
        "EPHEMERIS_TYPE": 0,
        "EPOCH": "2026-05-05T01:15:06.988608",
        "INCLINATION": 98.0606,
        "MEAN_ANOMALY": 165.846,
        "MEAN_MOTION": 15.2403746,
        "MEAN_MOTION_DDOT": 0,
        "MEAN_MOTION_DOT": 7.486e-05,
        "NORAD_CAT_ID": 41853,
        "OBJECT_ID": "2016-067F",
        "OBJECT_NAME": "AEROCUBE 8C",
        "RA_OF_ASC_NODE": 349.2347,
        "REV_AT_EPOCH": 51949
    },
    {
        "ARG_OF_PERICENTER": 256.9902,
        "BSTAR": 0.00032213,
        "CLASSIFICATION_TYPE": "U",
        "ECCENTRICITY": 0.0011908,
        "ELEMENT_SET_NO": 999,
        "EPHEMERIS_TYPE": 0,
        "EPOCH": "2026-05-05T09:50:04.305120",
        "INCLINATION": 97.4021,
        "MEAN_ANOMALY": 102.9997,
        "MEAN_MOTION": 15.06025417,
        "MEAN_MOTION_DDOT": 0,
        "MEAN_MOTION_DOT": 4.646e-05,
        "NORAD_CAT_ID": 42846,
        "OBJECT_ID": "2017-042X",
        "OBJECT_NAME": "CORVUS BC2",
        "RA_OF_ASC_NODE": 288.4415,
        "REV_AT_EPOCH": 48062
    },
    {
        "ARG_OF_PERICENTER": 230.8426,
        "BSTAR": 0.00034786,
        "CLASSIFICATION_TYPE": "U",
        "ECCENTRICITY": 0.0011001,
        "ELEMENT_SET_NO": 999,
        "EPHEMERIS_TYPE": 0,
        "EPOCH": "2026-05-05T09:49:18.490656",
        "INCLINATION": 97.4059,
        "MEAN_ANOMALY": 129.1825,
        "MEAN_MOTION": 15.06195029,
        "MEAN_MOTION_DDOT": 0,
        "MEAN_MOTION_DOT": 5.044e-05,
        "NORAD_CAT_ID": 42847,
        "OBJECT_ID": "2017-042Y",
        "OBJECT_NAME": "CORVUS BC1",
        "RA_OF_ASC_NODE": 289.2269,
        "REV_AT_EPOCH": 48065
    },
    {
        "ARG_OF_PERICENTER": 66.6825,
        "BSTAR": 0.00067278642,
        "CLASSIFICATION_TYPE": "U",
        "ECCENTRICITY": 0.01129559,
        "ELEMENT_SET_NO": 999,
        "EPHEMERIS_TYPE": 0,
        "EPOCH": "2026-05-05T02:43:48.118368",
        "INCLINATION": 97.4681,
        "MEAN_ANOMALY": 294.6255,
        "MEAN_MOTION": 15.30269778,
        "MEAN_MOTION_DDOT": 0,
        "MEAN_MOTION_DOT": 0.00023954,
        "NORAD_CAT_ID": 43016,
        "OBJECT_ID": "2017-073D",
        "OBJECT_NAME": "MAKERSAT 0",
        "RA_OF_ASC_NODE": 7.3454,
        "REV_AT_EPOCH": 45987
    },
    {
        "ARG_OF_PERICENTER": 90.0022,
        "BSTAR": 0.00036755,
        "CLASSIFICATION_TYPE": "U",
        "ECCENTRICITY": 0.0010452,
        "ELEMENT_SET_NO": 999,
        "EPHEMERIS_TYPE": 0,
        "EPOCH": "2026-05-05T08:43:44.834304",
        "INCLINATION": 97.4281,
        "MEAN_ANOMALY": 270.2407,
        "MEAN_MOTION": 15.14161494,
        "MEAN_MOTION_DDOT": 0,
        "MEAN_MOTION_DOT": 6.648e-05,
        "NORAD_CAT_ID": 43759,
        "OBJECT_ID": "2018-099B",
        "OBJECT_NAME": "SIRION PATHFINDER-2",
        "RA_OF_ASC_NODE": 175.4441,
        "REV_AT_EPOCH": 40614
    },
    {
        "ARG_OF_PERICENTER": 140.7338,
        "BSTAR": 0.00031155,
        "CLASSIFICATION_TYPE": "U",
        "ECCENTRICITY": 0.0009531,
        "ELEMENT_SET_NO": 999,
        "EPHEMERIS_TYPE": 0,
        "EPOCH": "2026-05-05T09:05:38.812416",
        "INCLINATION": 97.4102,
        "MEAN_ANOMALY": 219.4586,
        "MEAN_MOTION": 15.12153501,
        "MEAN_MOTION_DDOT": 0,
        "MEAN_MOTION_DOT": 5.315e-05,
        "NORAD_CAT_ID": 43767,
        "OBJECT_ID": "2018-099K",
        "OBJECT_NAME": "CORVUS BC4",
        "RA_OF_ASC_NODE": 169.6158,
        "REV_AT_EPOCH": 40593
    },
    {
        "ARG_OF_PERICENTER": 301.643,
        "BSTAR": 0.00024347244,
        "CLASSIFICATION_TYPE": "U",
        "ECCENTRICITY": 0.00106131,
        "ELEMENT_SET_NO": 999,
        "EPHEMERIS_TYPE": 0,
        "EPOCH": "2026-05-05T02:01:23.180448",
        "INCLINATION": 97.8152,
        "MEAN_ANOMALY": 58.376,
        "MEAN_MOTION": 15.04485028,
        "MEAN_MOTION_DDOT": 0,
        "MEAN_MOTION_DOT": 3.347e-05,
        "NORAD_CAT_ID": 45727,
        "OBJECT_ID": "2020-037E",
        "OBJECT_NAME": "M2 PATHFINDER",
        "RA_OF_ASC_NODE": 315.8336,
        "REV_AT_EPOCH": 31901
    },
    {
        "ARG_OF_PERICENTER": 109.5319,
        "BSTAR": 0.00053973,
        "CLASSIFICATION_TYPE": "U",
        "ECCENTRICITY": 0.0007618,
        "ELEMENT_SET_NO": 999,
        "EPHEMERIS_TYPE": 0,
        "EPOCH": "2026-05-05T10:57:10.328256",
        "INCLINATION": 97.8622,
        "MEAN_ANOMALY": 250.675,
        "MEAN_MOTION": 15.42474518,
        "MEAN_MOTION_DDOT": 0,
        "MEAN_MOTION_DOT": 0.00023342,
        "NORAD_CAT_ID": 46504,
        "OBJECT_ID": "2020-068U",
        "OBJECT_NAME": "NETSAT-4",
        "RA_OF_ASC_NODE": 130.313,
        "REV_AT_EPOCH": 30918
    },
    {
        "ARG_OF_PERICENTER": 122.2735,
        "BSTAR": 0.00048148,
        "CLASSIFICATION_TYPE": "U",
        "ECCENTRICITY": 0.0007303,
        "ELEMENT_SET_NO": 999,
        "EPHEMERIS_TYPE": 0,
        "EPOCH": "2026-05-05T10:17:46.743936",
        "INCLINATION": 97.867,
        "MEAN_ANOMALY": 237.9219,
        "MEAN_MOTION": 15.41230391,
        "MEAN_MOTION_DDOT": 0,
        "MEAN_MOTION_DOT": 0.00019957,
        "NORAD_CAT_ID": 46505,
        "OBJECT_ID": "2020-068V",
        "OBJECT_NAME": "NETSAT-3",
        "RA_OF_ASC_NODE": 128.5566,
        "REV_AT_EPOCH": 30909
    }